[{"OBJECT_NAME":"CREW DRAGON 12","OBJECT_ID":"2026-031A","EPOCH":"2026-03-05T13:50:21.177600","MEAN_MOTION":15.48460413,"ECCENTRICITY":0.00081549,"INCLINATION":51.6316,"RA_OF_ASC_NODE":92.691,"ARG_OF_PERICENTER":159.9772,"MEAN_ANOMALY":200.1537,"EPHEMERIS_TYPE":0,"CLASSIFICATION_TYPE":"U","NORAD_CAT_ID":67796,"ELEMENT_SET_NO":999,"REV_AT_EPOCH":55570,"BSTAR":0.00016617363,"MEAN_MOTION_DOT":8.552e-5,"MEAN_MOTION_DDOT":0}]
